[{"OBJECT_NAME":"STARLINK-3603","OBJECT_ID":"2022-017BA","EPOCH":"2026-03-10T00:00:02.999808","MEAN_MOTION":15.75223157,"ECCENTRICITY":7.732e-5,"INCLINATION":53.2171,"RA_OF_ASC_NODE":308.3028,"ARG_OF_PERICENTER":120.0533,"MEAN_ANOMALY":293.8003,"EPHEMERIS_TYPE":0,"CLASSIFICATION_TYPE":"U","NORAD_CAT_ID":51816,"ELEMENT_SET_NO":999,"REV_AT_EPOCH":592,"BSTAR":0.0029857303,"MEAN_MOTION_DOT":0.00483888,"MEAN_MOTION_DDOT":0},{"OBJECT_NAME":"STARLINK-36351","OBJECT_ID":"2026-018U","EPOCH":"2026-03-09T17:07:47.246592","MEAN_MOTION":15.7519734,"ECCENTRICITY":0.00013103,"INCLINATION":97.284,"RA_OF_ASC_NODE":134.5573,"ARG_OF_PERICENTER":81.8795,"MEAN_ANOMALY":278.2619,"EPHEMERIS_TYPE":0,"CLASSIFICATION_TYPE":"U","NORAD_CAT_ID":67607,"ELEMENT_SET_NO":999,"REV_AT_EPOCH":731,"BSTAR":0.0020697965,"MEAN_MOTION_DOT":0.00320575,"MEAN_MOTION_DDOT":0}]
